1 27540U 02048A   17349.71788198  .00000693  00000-0  00000+0 0  9992
2 27540  49.1636 179.1240 8379851 264.6643   0.4500  0.37585044 14982
